NORAD_CAT_ID,OBJECT_NAME,OBJECT_TYPE,EPOCH,MEAN_MOTION,ECCENTRICITY,INCLINATION,RA_OF_ASC_NODE,ARG_OF_PERICENTER,MEAN_ANOMALY,BSTAR,MEAN_MOTION_DOT,MEAN_MOTION_DDOT,TLE_LINE0,TLE_LINE1,TLE_LINE2,SEMIMAJOR_AXIS,PERIOD,APOGEE,PERIGEE,DECAYED
51877.0,STARLINK-3556,PAYLOAD,2024-02-05 13:41:03,15.08835571,0.0001432,53.2172,184.8939,102.8804,257.2348,4.5441e-05,4.35e-06,0.0,0 STARLINK-3556,1 51877U 22022AB  24036.57018158  .00000435  00000-0  45441-4 0  9990,2 51877  53.2172 184.8939 0001432 102.8804 257.2348 15.08835571108042,6917.894,95.438,540.75,538.768,0.0
51877.0,STARLINK-3556,PAYLOAD,2024-02-05 16:51:49,15.08837072,0.0001407,53.2173,184.2994,98.5157,261.5995,5.5347e-05,5.93e-06,0.0,0 STARLINK-3556,1 51877U 22022AB  24036.70266084  .00000593  00000-0  55347-4 0  9999,2 51877  53.2173 184.2994 0001407  98.5157 261.5995 15.08837072108068,6917.889,95.438,540.728,538.781,0.0
51877.0,STARLINK-3556,PAYLOAD,2024-02-06 02:24:08,15.08836593,0.0001381,53.2176,182.5162,85.7321,274.3829,5.3719e-05,5.67e-06,0.0,0 STARLINK-3556,1 51877U 22022AB  24037.10010263  .00000567  00000-0  53719-4 0  9992,2 51877  53.2176 182.5162 0001381  85.7321 274.3829 15.08836593108123,6917.891,95.438,540.711,538.8,0.0
51877.0,STARLINK-3556,PAYLOAD,2024-02-06 13:31:50,15.08836635,0.000139,53.2178,180.4375,94.672,265.4431,4.3374e-05,4.02e-06,0.0,0 STARLINK-3556,1 51877U 22022AB  24037.56378444  .00000402  00000-0  43374-4 0  9994,2 51877  53.2178 180.4375 0001390  94.6720 265.4431 15.08836635108194,6917.891,95.438,540.717,538.794,0.0
51877.0,STARLINK-3556,PAYLOAD,2024-02-06 15:07:14,15.08837751,0.000141,53.2176,180.1406,95.3241,264.7912,5.5044e-05,5.88e-06,0.0,0 STARLINK-3556,1 51877U 22022AB  24037.63002355  .00000588  00000-0  55044-4 0  9999,2 51877  53.2176 180.1406 0001410  95.3241 264.7912 15.08837751108201,6917.887,95.438,540.728,538.777,0.0
51877.0,STARLINK-3556,PAYLOAD,2024-02-07 08:36:29,15.08834113,0.0001376,53.2171,176.8698,91.9848,268.1302,2.6186e-05,1.29e-06,0.0,0 STARLINK-3556,1 51877U 22022AB  24038.35866952  .00000129  00000-0  26186-4 0  9996,2 51877  53.2171 176.8698 0001376  91.9848 268.1302 15.08834113108319,6917.898,95.438,540.715,538.811,0.0
51877.0,STARLINK-3556,PAYLOAD,2024-02-07 14:58:01,15.08833146,0.0001385,53.2172,175.679,87.6296,272.4855,1.174e-05,-1.01e-06,0.0,0 STARLINK-3556,1 51877U 22022AB  24038.62363212 -.00000101  00000-0  11740-4 0  9998,2 51877  53.2172 175.6790 0001385  87.6296 272.4855 15.08833146108359,6917.901,95.438,540.724,538.808,0.0
51877.0,STARLINK-3556,PAYLOAD,2024-02-07 16:33:24,15.08834594,0.0001378,53.2172,175.3814,84.7528,275.3622,2.0262e-05,3.5e-07,0.0,0 STARLINK-3556,1 51877U 22022AB  24038.68987126  .00000035  00000-0  20262-4 0  9994,2 51877  53.2172 175.3814 0001378  84.7528 275.3622 15.08834594108364,6917.897,95.438,540.715,538.809,0.0
51877.0,STARLINK-3556,PAYLOAD,2024-02-08 14:48:47,15.08850217,0.0001382,53.2168,171.2175,84.1517,275.9633,7.5715e-05,9.18e-06,0.0,0 STARLINK-3556,1 51877U 22022AB  24039.61722125  .00000918  00000-0  75715-4 0  9997,2 51877  53.2168 171.2175 0001382  84.1517 275.9633 15.08850217108505,6917.849,95.437,540.67,538.758,0.0
51877.0,STARLINK-3556,PAYLOAD,2024-02-08 16:24:10,15.08854512,0.0001387,53.2177,170.9213,80.722,279.3929,0.00021846,3.192e-05,0.0,0 STARLINK-3556,1 51877U 22022AB  24039.68345479  .00003192  00000-0  21846-3 0  9999,2 51877  53.2177 170.9213 0001387  80.7220 279.3929 15.08854512108511,6917.836,95.437,540.661,538.742,0.0
51877.0,STARLINK-3556,PAYLOAD,2024-02-09 14:39:35,15.08845757,0.0001653,53.2171,166.7565,69.0816,291.0353,0.00010906,1.448e-05,0.0,0 STARLINK-3556,1 51877U 22022AB  24040.61082242  .00001448  00000-0  10906-3 0  9997,2 51877  53.2171 166.7565 0001653  69.0816 291.0353 15.08845757108653,6917.863,95.437,540.871,538.584,0.0
51877.0,STARLINK-3556,PAYLOAD,2024-02-09 17:50:20,15.08852625,0.0001373,53.2172,166.159,85.8342,274.2807,0.00012717,1.737e-05,0.0,0 STARLINK-3556,1 51877U 22022AB  24040.74329546  .00001737  00000-0  12717-3 0  9995,2 51877  53.2172 166.1590 0001373  85.8342 274.2807 15.08852625108676,6917.842,95.437,540.657,538.757,0.0
51877.0,STARLINK-3556,PAYLOAD,2024-02-10 12:54:59,15.08845072,0.0001472,53.2176,162.5972,82.5964,277.5196,-0.00010814,-2.009e-05,0.0,0 STARLINK-3556,1 51877U 22022AB  24041.53818789 -.00002009  00000-0 -10814-3 0  9996,2 51877  53.2176 162.5972 0001472  82.5964 277.5196 15.08845072108796,6917.865,95.437,540.748,538.712,0.0
51877.0,STARLINK-3556,PAYLOAD,2024-02-10 17:41:08,15.08849623,0.0001513,53.2176,161.7012,89.035,271.0816,-4.1009e-05,-9.41e-06,0.0,0 STARLINK-3556,1 51877U 22022AB  24041.73690189 -.00000941  00000-0 -41009-4 0  9994,2 51877  53.2176 161.7012 0001513  89.0350 271.0816 15.08849623108827,6917.851,95.437,540.763,538.669,0.0
51877.0,STARLINK-3556,PAYLOAD,2024-02-11 14:21:08,15.08854624,0.0001647,53.2179,157.8383,88.9658,271.1523,1.803e-05,-1e-08,0.0,0 STARLINK-3556,1 51877U 22022AB  24042.59801646 -.00000001  00000-0  18030-4 0  9995,2 51877  53.2179 157.8383 0001647  88.9658 271.1523 15.08854624108951,6917.836,95.437,540.84,538.561,0.0
51877.0,STARLINK-3556,PAYLOAD,2024-02-11 17:31:54,15.08855348,0.000155,53.2181,157.2377,84.5965,275.5204,4.7796e-05,4.73e-06,0.0,0 STARLINK-3556,1 51877U 22022AB  24042.73049447  .00000473  00000-0  47796-4 0  9997,2 51877  53.2181 157.2377 0001550  84.5965 275.5204 15.08855348108977,6917.833,95.437,540.771,538.626,0.0
51877.0,STARLINK-3556,PAYLOAD,2024-02-12 11:01:09,15.08842559,0.0001716,53.217,153.9698,93.2735,266.8453,7.5584e-05,9.15e-06,0.0,0 STARLINK-3556,1 51877U 22022AB  24043.45914281  .00000915  00000-0  75584-4 0  9991,2 51877  53.2170 153.9698 0001716  93.2735 266.8453 15.08842559109082,6917.873,95.437,540.925,538.55,0.0
51877.0,STARLINK-3556,PAYLOAD,2024-02-12 14:11:55,15.08850264,0.000164,53.2173,153.3741,103.3741,256.7434,0.00015965,2.254e-05,0.0,0 STARLINK-3556,1 51877U 22022AB  24043.59161597  .00002254  00000-0  15965-3 0  9994,2 51877  53.2173 153.3741 0001640 103.3741 256.7434 15.08850264109106,6917.849,95.437,540.849,538.579,0.0
51877.0,STARLINK-3556,PAYLOAD,2024-02-12 17:22:41,15.08856132,0.0001467,53.2164,152.7791,103.7622,256.3533,0.00025534,3.78e-05,0.0,0 STARLINK-3556,1 51877U 22022AB  24043.72409379  .00003780  00000-0  25534-3 0  9990,2 51877  53.2164 152.7791 0001467 103.7622 256.3533 15.08856132109121,6917.831,95.437,540.711,538.681,0.0
51877.0,STARLINK-3556,PAYLOAD,2024-02-13 12:27:20,15.08829641,0.0001559,53.2172,149.2104,93.9668,266.1502,-0.00021238,-3.665e-05,0.0,0 STARLINK-3556,1 51877U 22022AB  24044.51899095 -.00003665  00000-0 -21238-3 0  9997,2 51877  53.2172 149.2104 0001559  93.9668 266.1502 15.08829641109244,6917.912,95.438,540.856,538.699,0.0
51877.0,STARLINK-3556,PAYLOAD,2024-02-13 14:02:43,15.08833091,0.0001552,53.2173,148.9191,98.4441,261.6727,-0.00010918,-2.025e-05,0.0,0 STARLINK-3556,1 51877U 22022AB  24044.58523083 -.00002025  00000-0 -10918-3 0  9997,2 51877  53.2173 148.9191 0001552  98.4441 261.6727 15.08833091109253,6917.902,95.438,540.84,538.693,0.0
51877.0,STARLINK-3556,PAYLOAD,2024-02-13 23:35:02,15.08842802,0.0001555,53.2174,147.1333,87.1327,272.9843,-1.2626e-05,-4.89e-06,0.0,0 STARLINK-3556,1 51877U 22022AB  24044.98266632 -.00000489  00000-0 -12626-4 0  9996,2 51877  53.2174 147.1333 0001555  87.1327 272.9843 15.08842802109315,6917.872,95.437,540.813,538.661,0.0
51877.0,STARLINK-3556,PAYLOAD,2024-02-14 13:53:30,15.08864939,0.0001489,53.2167,144.4581,95.3905,264.7257,0.0011848,0.00018631,0.0,0 STARLINK-3556,1 51877U 22022AB  24045.57882663  .00018631  00000-0  11848-2 0  9999,2 51877  53.2167 144.4581 0001489  95.3905 264.7257 15.08864939109404,6917.804,95.436,540.699,538.639,0.0
51877.0,STARLINK-3556,PAYLOAD,2024-02-14 15:28:53,15.08871624,0.0001525,53.2168,144.1609,97.0985,263.0181,0.001372,0.00021634,0.0,0 STARLINK-3556,1 51877U 22022AB  24045.64506493  .00021634  00000-0  13720-2 0  9999,2 51877  53.2168 144.1609 0001525  97.0985 263.0181 15.08871624109419,6917.784,95.436,540.704,538.594,0.0
51877.0,STARLINK-3556,PAYLOAD,2024-02-15 12:08:55,15.08838346,0.0001442,53.2157,140.2947,80.8537,279.2618,0.00032523,4.892e-05,0.0,0 STARLINK-3556,1 51877U 22022AB  24046.50619366  .00004892  00000-0  32523-3 0  9999,2 51877  53.2157 140.2947 0001442  80.8537 279.2618 15.08838346109542,6917.885,95.438,540.748,538.753,0.0
51877.0,STARLINK-3556,PAYLOAD,2024-02-15 13:44:18,15.08839975,0.0001505,53.2162,139.9975,88.2036,271.9128,0.00042782,6.527e-05,0.0,0 STARLINK-3556,1 51877U 22022AB  24046.57243371  .00006527  00000-0  42782-3 0  9990,2 51877  53.2162 139.9975 0001505  88.2036 271.9128 15.08839975109555,6917.88,95.438,540.787,538.704,0.0
51877.0,STARLINK-3556,PAYLOAD,2024-02-16 13:35:05,15.08853001,0.0001446,53.2149,135.5365,94.9192,265.1965,0.00093248,0.00014589,0.0,0 STARLINK-3556,1 51877U 22022AB  24047.56603467  .00014589  00000-0  93248-3 0  9996,2 51877  53.2149 135.5365 0001446  94.9192 265.1965 15.08853001109703,6917.841,95.437,540.706,538.705,0.0
51877.0,STARLINK-3556,PAYLOAD,2024-02-17 11:50:29,15.08843106,0.0001622,53.2163,131.3733,84.5319,275.5858,0.00034041,5.134e-05,0.0,0 STARLINK-3556,1 51877U 22022AB  24048.49339993  .00005134  00000-0  34041-3 0  9991,2 51877  53.2163 131.3733 0001622  84.5319 275.5858 15.08843106109840,6917.871,95.437,540.858,538.614,0.0
51877.0,STARLINK-3556,PAYLOAD,2024-02-18 11:41:16,15.08856485,0.0001698,53.2153,126.9126,83.5243,276.5942,0.0006585,0.00010212,0.0,0 STARLINK-3556,1 51877U 22022AB  24049.48699666  .00010212  00000-0  65850-3 0  9992,2 51877  53.2153 126.9126 0001698  83.5243 276.5942 15.08856485109998,6917.83,95.437,540.87,538.52,0.0
51877.0,STARLINK-3556,PAYLOAD,2024-02-19 11:32:03,15.08845211,0.0001573,53.2152,122.4466,86.8242,273.293,0.00015464,2.174e-05,0.0,0 STARLINK-3556,1 51877U 22022AB  24050.48059756  .00002174  00000-0  15464-3 0  9998,2 51877  53.2152 122.4466 0001573  86.8242 273.2930 15.08845211110147,6917.864,95.437,540.818,538.641,0.0
